{
  "type": "FeatureCollection",
  "features": [
    {
      "type": "Feature",
      "geometry": {
        "type": "Point",
        "coordinates": [
          -2.2745919750063948,
          53.00434850734982
        ]
      },
      "properties": {
        "source_sheet": "lost_trees",
        "tag": 2282,
        "square": "K5",
        "species": "Willow sp",
        "latin_name": "Salix sp",
        "comments": "Dead : 2014 - Wind blow February",
        "easting": 381670.59375,
        "northing": 345261.15625
      }
    },
    {
      "type": "Feature",
      "geometry": {
        "type": "Point",
        "coordinates": [
          -2.2734926996702964,
          53.00460217827223
        ]
      },
      "properties": {
        "source_sheet": "lost_trees",
        "tag": 2614,
        "square": "L5",
        "species": "Flowering Cherry",
        "latin_name": "Prunus sp",
        "comments": "Dead",
        "easting": 381744.46875,
        "northing": 345289.09375
      }
    },
    {
      "type": "Feature",
      "geometry": {
        "type": "Point",
        "coordinates": [
          -2.2736143914617593,
          53.00440469782114
        ]
      },
      "properties": {
        "source_sheet": "lost_trees",
        "tag": 2625,
        "square": "L5",
        "species": "Flowering Cherry",
        "latin_name": "Prunus sp",
        "comments": "Dead",
        "easting": 381736.21875,
        "northing": 345267.15625
      }
    },
    {
      "type": "Feature",
      "geometry": {
        "type": "Point",
        "coordinates": [
          -2.273633834416586,
          53.0043863937593
        ]
      },
      "properties": {
        "source_sheet": "lost_trees",
        "tag": 2626,
        "square": "L5",
        "species": "Flowering Cherry",
        "latin_name": "Prunus sp",
        "comments": "Dead",
        "easting": 381734.90625,
        "northing": 345265.125
      }
    },
    {
      "type": "Feature",
      "geometry": {
        "type": "Point",
        "coordinates": [
          -2.2725322273102684,
          53.00419734377188
        ]
      },
      "properties": {
        "source_sheet": "lost_trees",
        "tag": 2743,
        "square": "M5",
        "species": "Flowering Cherry",
        "latin_name": "Prunus avium 'Plena'",
        "comments": "Dead",
        "easting": 381808.75,
        "northing": 345243.8125
      }
    },
    {
      "type": "Feature",
      "geometry": {
        "type": "Point",
        "coordinates": [
          -2.2725107725391576,
          53.0042659355271
        ]
      },
      "properties": {
        "source_sheet": "lost_trees",
        "tag": 2744,
        "square": "M5",
        "species": "Norway Maple",
        "latin_name": "Acer platanoides",
        "comments": "Dead",
        "easting": 381810.21875,
        "northing": 345251.4375
      }
    },
    {
      "type": "Feature",
      "geometry": {
        "type": "Point",
        "coordinates": [
          -2.2724937885919365,
          53.00423114138628
        ]
      },
      "properties": {
        "source_sheet": "lost_trees",
        "tag": 2745,
        "square": "M5",
        "species": "Norway Maple",
        "latin_name": "Acer platanoides",
        "comments": "Dead",
        "easting": 381811.34375,
        "northing": 345247.5625
      }
    },
    {
      "type": "Feature",
      "geometry": {
        "type": "Point",
        "coordinates": [
          -2.2724438195003933,
          53.00420878301712
        ]
      },
      "properties": {
        "source_sheet": "lost_trees",
        "tag": 2746,
        "square": "M5",
        "species": "Norway Maple",
        "latin_name": "Acer platanoides",
        "comments": "Dead",
        "easting": 381814.6875,
        "northing": 345245.0625
      }
    },
    {
      "type": "Feature",
      "geometry": {
        "type": "Point",
        "coordinates": [
          -2.2701253865112365,
          53.00595601220963
        ]
      },
      "properties": {
        "source_sheet": "lost_trees",
        "tag": 2791,
        "square": "N3",
        "species": "Flowering Cherry",
        "latin_name": "Prunus sp",
        "comments": "Dead",
        "easting": 381971.0,
        "northing": 345438.84375
      }
    },
    {
      "type": "Feature",
      "geometry": {
        "type": "Point",
        "coordinates": [
          -2.2701019244326632,
          53.00570408751382
        ]
      },
      "properties": {
        "source_sheet": "lost_trees",
        "tag": 2793,
        "square": "N3",
        "species": "Flowering Cherry",
        "latin_name": "Prunus sp",
        "comments": "Dead",
        "easting": 381972.46875,
        "northing": 345410.8125
      }
    },
    {
      "type": "Feature",
      "geometry": {
        "type": "Point",
        "coordinates": [
          -2.2707314228129056,
          53.00553495029526
        ]
      },
      "properties": {
        "source_sheet": "lost_trees",
        "tag": 2809,
        "square": "N3",
        "species": "Lime sp",
        "latin_name": "Tilia sp",
        "comments": "Dead",
        "easting": 381930.15625,
        "northing": 345392.15625
      }
    },
    {
      "type": "Feature",
      "geometry": {
        "type": "Point",
        "coordinates": [
          -2.2707651549286005,
          53.00556717830388
        ]
      },
      "properties": {
        "source_sheet": "lost_trees",
        "tag": 2810,
        "square": "N3",
        "species": "Lime sp",
        "latin_name": "Tilia sp",
        "comments": "Dead",
        "easting": 381927.90625,
        "northing": 345395.75
      }
    },
    {
      "type": "Feature",
      "geometry": {
        "type": "Point",
        "coordinates": [
          -2.270819440247948,
          53.00553503061004
        ]
      },
      "properties": {
        "source_sheet": "lost_trees",
        "tag": 2811,
        "square": "N3",
        "species": "Lime sp",
        "latin_name": "Tilia sp",
        "comments": "Dead",
        "easting": 381924.25,
        "northing": 345392.1875
      }
    },
    {
      "type": "Feature",
      "geometry": {
        "type": "Point",
        "coordinates": [
          -2.2707907832096104,
          53.00549520642596
        ]
      },
      "properties": {
        "source_sheet": "lost_trees",
        "tag": 2812,
        "square": "N3",
        "species": "Lime sp",
        "latin_name": "Tilia sp",
        "comments": "Dead",
        "easting": 381926.15625,
        "northing": 345387.75
      }
    },
    {
      "type": "Feature",
      "geometry": {
        "type": "Point",
        "coordinates": [
          -2.270762245863768,
          53.00547448397737
        ]
      },
      "properties": {
        "source_sheet": "lost_trees",
        "tag": 2813,
        "square": "N3",
        "species": "Lime sp",
        "latin_name": "Tilia sp",
        "comments": "Dead",
        "easting": 381928.0625,
        "northing": 345385.4375
      }
    },
    {
      "type": "Feature",
      "geometry": {
        "type": "Point",
        "coordinates": [
          -2.2708567564460034,
          53.0054703357868
        ]
      },
      "properties": {
        "source_sheet": "lost_trees",
        "tag": 2814,
        "square": "N3",
        "species": "Lime sp",
        "latin_name": "Tilia sp",
        "comments": "Dead",
        "easting": 381921.71875,
        "northing": 345385.0
      }
    },
    {
      "type": "Feature",
      "geometry": {
        "type": "Point",
        "coordinates": [
          -2.27058532596636,
          53.00287757421469
        ]
      },
      "properties": {
        "source_sheet": "lost_trees",
        "tag": 2838,
        "square": "N6",
        "species": "Flowering Cherry",
        "latin_name": "Prunus avium 'Plena'",
        "comments": "Dead :  2012 - Felled",
        "easting": 381938.84375,
        "northing": 345096.5
      }
    },
    {
      "type": "Feature",
      "geometry": {
        "type": "Point",
        "coordinates": [
          -2.270549865277747,
          53.0028664184875
        ]
      },
      "properties": {
        "source_sheet": "lost_trees",
        "tag": 2840,
        "square": "N6",
        "species": "Flowering Cherry",
        "latin_name": "Prunus avium 'Plena'",
        "comments": "Dead :  2012 - Felled",
        "easting": 381941.21875,
        "northing": 345095.25
      }
    },
    {
      "type": "Feature",
      "geometry": {
        "type": "Point",
        "coordinates": [
          -2.2704844528201624,
          53.00283145341436
        ]
      },
      "properties": {
        "source_sheet": "lost_trees",
        "tag": 2841,
        "square": "N6",
        "species": "Flowering Cherry",
        "latin_name": "Prunus avium 'Plena'",
        "comments": "Dead :  2012 - Felled",
        "easting": 381945.59375,
        "northing": 345091.34375
      }
    },
    {
      "type": "Feature",
      "geometry": {
        "type": "Point",
        "coordinates": [
          -2.270416773653304,
          53.002806325388455
        ]
      },
      "properties": {
        "source_sheet": "lost_trees",
        "tag": 2843,
        "square": "N6",
        "species": "Flowering Cherry",
        "latin_name": "Prunus avium 'Plena'",
        "comments": "Dead :  2012 - Felled",
        "easting": 381950.125,
        "northing": 345088.53125
      }
    },
    {
      "type": "Feature",
      "geometry": {
        "type": "Point",
        "coordinates": [
          -2.2678519446360466,
          53.00139015834784
        ]
      },
      "properties": {
        "source_sheet": "lost_trees",
        "tag": 2971,
        "square": "P8",
        "species": "Flowering Cherry",
        "latin_name": "Prunus 'Kanzan'",
        "comments": "Dead : 2014  - Felled January",
        "easting": 382121.65625,
        "northing": 344930.34375
      }
    },
    {
      "type": "Feature",
      "geometry": {
        "type": "Point",
        "coordinates": [
          -2.2686799839471665,
          53.001182660876296
        ]
      },
      "properties": {
        "source_sheet": "lost_trees",
        "tag": 3017,
        "square": "O9",
        "species": "Pedunculate Oak",
        "latin_name": "Quercus robur",
        "comments": "Dead : 2014  - Felled January",
        "easting": 382066.0,
        "northing": 344907.46875
      }
    },
    {
      "type": "Feature",
      "geometry": {
        "type": "Point",
        "coordinates": [
          -2.2731192311104014,
          53.004530562076724
        ]
      },
      "properties": {
        "source_sheet": "lost_trees",
        "tag": 3179,
        "square": "L5",
        "species": "Flowering Cherry",
        "latin_name": "Prunus 'Kanzan'",
        "comments": "Dead",
        "easting": 381769.5,
        "northing": 345281.03125
      }
    },
    {
      "type": "Feature",
      "geometry": {
        "type": "Point",
        "coordinates": [
          -2.2714749764834776,
          53.003135388389516
        ]
      },
      "properties": {
        "source_sheet": "lost_trees",
        "tag": 3258,
        "square": "M6",
        "species": "Norway Maple",
        "latin_name": "Acer platanoides",
        "comments": "Dead : 2010 - Felled",
        "easting": 381879.25,
        "northing": 345125.40625
      }
    },
    {
      "type": "Feature",
      "geometry": {
        "type": "Point",
        "coordinates": [
          -2.271439917528797,
          53.00311411917397
        ]
      },
      "properties": {
        "source_sheet": "lost_trees",
        "tag": 3260,
        "square": "M6",
        "species": "Norway Maple",
        "latin_name": "Acer platanoides",
        "comments": "Dead : 2010 - Felled",
        "easting": 381881.59375,
        "northing": 345123.03125
      }
    },
    {
      "type": "Feature",
      "geometry": {
        "type": "Point",
        "coordinates": [
          -2.271366592964023,
          53.003080015399334
        ]
      },
      "properties": {
        "source_sheet": "lost_trees",
        "tag": 3262,
        "square": "M6",
        "species": "Norway Maple",
        "latin_name": "Acer platanoides",
        "comments": "Dead : 2010 - Felled",
        "easting": 381886.5,
        "northing": 345119.21875
      }
    },
    {
      "type": "Feature",
      "geometry": {
        "type": "Point",
        "coordinates": [
          -2.2713239653574084,
          53.003039942325444
        ]
      },
      "properties": {
        "source_sheet": "lost_trees",
        "tag": 3264,
        "square": "M6",
        "species": "Norway Maple",
        "latin_name": "Acer platanoides",
        "comments": "Dead : 2010 - Felled",
        "easting": 381889.34375,
        "northing": 345114.75
      }
    },
    {
      "type": "Feature",
      "geometry": {
        "type": "Point",
        "coordinates": [
          -2.2712387557964875,
          53.003041260539185
        ]
      },
      "properties": {
        "source_sheet": "lost_trees",
        "tag": 3265,
        "square": "M6",
        "species": "Norway Maple",
        "latin_name": "Acer platanoides",
        "comments": "Dead : 2010 - Felled",
        "easting": 381895.0625,
        "northing": 345114.875
      }
    },
    {
      "type": "Feature",
      "geometry": {
        "type": "Point",
        "coordinates": [
          -2.2711813169549315,
          53.00301554774503
        ]
      },
      "properties": {
        "source_sheet": "lost_trees",
        "tag": 3267,
        "square": "M6",
        "species": "Rowan",
        "latin_name": "Sorbus acuparia",
        "comments": "Dead : 2010 - Felled",
        "easting": 381898.90625,
        "northing": 345112.0
      }
    },
    {
      "type": "Feature",
      "geometry": {
        "type": "Point",
        "coordinates": [
          -2.2710780740244685,
          53.00296297187891
        ]
      },
      "properties": {
        "source_sheet": "lost_trees",
        "tag": 3269,
        "square": "M6",
        "species": "Norway Maple",
        "latin_name": "Acer platanoides",
        "comments": "Dead : 2010 - Felled",
        "easting": 381905.8125,
        "northing": 345106.125
      }
    },
    {
      "type": "Feature",
      "geometry": {
        "type": "Point",
        "coordinates": [
          -2.2710197427954784,
          53.00294344110917
        ]
      },
      "properties": {
        "source_sheet": "lost_trees",
        "tag": 3271,
        "square": "M6",
        "species": "Norway Maple",
        "latin_name": "Acer platanoides",
        "comments": "Dead : 2010 - Felled",
        "easting": 381909.71875,
        "northing": 345103.9375
      }
    },
    {
      "type": "Feature",
      "geometry": {
        "type": "Point",
        "coordinates": [
          -2.270854799729609,
          53.002779483671695
        ]
      },
      "properties": {
        "source_sheet": "lost_trees",
        "tag": 3273,
        "square": "M6",
        "species": "Flowering Cherry",
        "latin_name": "Prunus sp",
        "comments": "Dead : 2010 - Felled",
        "easting": 381920.71875,
        "northing": 345085.65625
      }
    },
    {
      "type": "Feature",
      "geometry": {
        "type": "Point",
        "coordinates": [
          -2.2707627887004045,
          53.00281003191091
        ]
      },
      "properties": {
        "source_sheet": "lost_trees",
        "tag": 3274,
        "square": "M6",
        "species": "Flowering Cherry",
        "latin_name": "Prunus sp",
        "comments": "Dead : 2010 - Felled",
        "easting": 381926.90625,
        "northing": 345089.03125
      }
    },
    {
      "type": "Feature",
      "geometry": {
        "type": "Point",
        "coordinates": [
          -2.2707602703937604,
          53.00277969914145
        ]
      },
      "properties": {
        "source_sheet": "lost_trees",
        "tag": 3275,
        "square": "M6",
        "species": "unknown",
        "latin_name": "unknown",
        "comments": "Dead : 2010 - Felled",
        "easting": 381927.0625,
        "northing": 345085.65625
      }
    },
    {
      "type": "Feature",
      "geometry": {
        "type": "Point",
        "coordinates": [
          -2.270797767303208,
          53.0027442187531
        ]
      },
      "properties": {
        "source_sheet": "lost_trees",
        "tag": 3276,
        "square": "M6",
        "species": "Flowering Cherry",
        "latin_name": "Prunus avium 'Plena'",
        "comments": "Dead : 2010 - Felled",
        "easting": 381924.53125,
        "northing": 345081.71875
      }
    },
    {
      "type": "Feature",
      "geometry": {
        "type": "Point",
        "coordinates": [
          -2.2706194998774287,
          53.00275754690446
        ]
      },
      "properties": {
        "source_sheet": "lost_trees",
        "tag": 3277,
        "square": "M6",
        "species": "Flowering Cherry",
        "latin_name": "Prunus avium 'Plena'",
        "comments": "Dead : 2010 - Felled",
        "easting": 381936.5,
        "northing": 345083.15625
      }
    },
    {
      "type": "Feature",
      "geometry": {
        "type": "Point",
        "coordinates": [
          -2.2706905965947493,
          53.00273350740789
        ]
      },
      "properties": {
        "source_sheet": "lost_trees",
        "tag": 3278,
        "square": "M6",
        "species": "Flowering Cherry",
        "latin_name": "Prunus avium 'Plena'",
        "comments": "Dead : 2010 - Felled",
        "easting": 381931.71875,
        "northing": 345080.5
      }
    },
    {
      "type": "Feature",
      "geometry": {
        "type": "Point",
        "coordinates": [
          -2.2701511780810124,
          53.00248191429252
        ]
      },
      "properties": {
        "source_sheet": "lost_trees",
        "tag": 3290,
        "square": "N7",
        "species": "Flowering Cherry",
        "latin_name": "Prunus sp",
        "comments": "Dead",
        "easting": 381967.8125,
        "northing": 345052.375
      }
    },
    {
      "type": "Feature",
      "geometry": {
        "type": "Point",
        "coordinates": [
          -2.2702038400608964,
          53.002414094710204
        ]
      },
      "properties": {
        "source_sheet": "lost_trees",
        "tag": 3291,
        "square": "N7",
        "species": "Flowering Cherry",
        "latin_name": "Prunus sp",
        "comments": "Dead",
        "easting": 381964.25,
        "northing": 345044.84375
      }
    },
    {
      "type": "Feature",
      "geometry": {
        "type": "Point",
        "coordinates": [
          -2.270127342297451,
          53.002393481168795
        ]
      },
      "properties": {
        "source_sheet": "lost_trees",
        "tag": 3296,
        "square": "N7",
        "species": "Flowering Cherry",
        "latin_name": "Prunus sp",
        "comments": "Dead",
        "easting": 381969.375,
        "northing": 345042.53125
      }
    },
    {
      "type": "Feature",
      "geometry": {
        "type": "Point",
        "coordinates": [
          -2.270113964586562,
          53.00241373725824
        ]
      },
      "properties": {
        "source_sheet": "lost_trees",
        "tag": 3297,
        "square": "N7",
        "species": "Flowering Cherry",
        "latin_name": "Prunus sp",
        "comments": "Dead",
        "easting": 381970.28125,
        "northing": 345044.78125
      }
    },
    {
      "type": "Feature",
      "geometry": {
        "type": "Point",
        "coordinates": [
          -2.270034702746916,
          53.002397905447836
        ]
      },
      "properties": {
        "source_sheet": "lost_trees",
        "tag": 3302,
        "square": "N7",
        "species": "Flowering Cherry",
        "latin_name": "Prunus sp",
        "comments": "Dead",
        "easting": 381975.59375,
        "northing": 345043.0
      }
    },
    {
      "type": "Feature",
      "geometry": {
        "type": "Point",
        "coordinates": [
          -2.271784898222734,
          53.00191580205222
        ]
      },
      "properties": {
        "source_sheet": "lost_trees",
        "tag": 3527,
        "square": "M8",
        "species": "Flowering Cherry",
        "latin_name": "Prunus avium",
        "comments": "Dead : 2010 - Felled",
        "easting": 381857.9375,
        "northing": 344989.8125
      }
    },
    {
      "type": "Feature",
      "geometry": {
        "type": "Point",
        "coordinates": [
          -2.2717396275373445,
          53.001899612700754
        ]
      },
      "properties": {
        "source_sheet": "lost_trees",
        "tag": 3528,
        "square": "M8",
        "species": "Flowering Cherry",
        "latin_name": "Prunus sp",
        "comments": "Dead : 2010 - Felled",
        "easting": 381860.96875,
        "northing": 344988.0
      }
    },
    {
      "type": "Feature",
      "geometry": {
        "type": "Point",
        "coordinates": [
          -2.271627902763203,
          53.001904924610194
        ]
      },
      "properties": {
        "source_sheet": "lost_trees",
        "tag": 3529,
        "square": "M8",
        "species": "Norway Maple",
        "latin_name": "Acer platanoides",
        "comments": "Dead : 2010 - Felled",
        "easting": 381868.46875,
        "northing": 344988.5625
      }
    },
    {
      "type": "Feature",
      "geometry": {
        "type": "Point",
        "coordinates": [
          -2.271697025465801,
          53.00186347246535
        ]
      },
      "properties": {
        "source_sheet": "lost_trees",
        "tag": 3530,
        "square": "M8",
        "species": "Norway Maple",
        "latin_name": "Acer platanoides",
        "comments": "Dead",
        "easting": 381863.8125,
        "northing": 344983.96875
      }
    },
    {
      "type": "Feature",
      "geometry": {
        "type": "Point",
        "coordinates": [
          -2.2717420100804477,
          53.00183415471612
        ]
      },
      "properties": {
        "source_sheet": "lost_trees",
        "tag": 3531,
        "square": "M8",
        "species": "Norway Maple",
        "latin_name": "Acer platanoides",
        "comments": "Dead",
        "easting": 381860.78125,
        "northing": 344980.71875
      }
    },
    {
      "type": "Feature",
      "geometry": {
        "type": "Point",
        "coordinates": [
          -2.2716249482544413,
          53.00187936835798
        ]
      },
      "properties": {
        "source_sheet": "lost_trees",
        "tag": 3532,
        "square": "M8",
        "species": "Norway Maple",
        "latin_name": "Acer platanoides",
        "comments": "Dead : 2012 - Felled",
        "easting": 381868.65625,
        "northing": 344985.71875
      }
    },
    {
      "type": "Feature",
      "geometry": {
        "type": "Point",
        "coordinates": [
          -2.271631089712103,
          53.00181923911271
        ]
      },
      "properties": {
        "source_sheet": "lost_trees",
        "tag": 3534,
        "square": "M8",
        "species": "Norway Maple",
        "latin_name": "Acer platanoides",
        "comments": "Dead",
        "easting": 381868.21875,
        "northing": 344979.03125
      }
    },
    {
      "type": "Feature",
      "geometry": {
        "type": "Point",
        "coordinates": [
          -2.271693799075029,
          53.00179465636222
        ]
      },
      "properties": {
        "source_sheet": "lost_trees",
        "tag": 3535,
        "square": "M8",
        "species": "Norway Maple",
        "latin_name": "Acer platanoides",
        "comments": "Dead",
        "easting": 381864.0,
        "northing": 344976.3125
      }
    },
    {
      "type": "Feature",
      "geometry": {
        "type": "Point",
        "coordinates": [
          -2.271640450116158,
          53.001752641526686
        ]
      },
      "properties": {
        "source_sheet": "lost_trees",
        "tag": 3536,
        "square": "M8",
        "species": "Sweet Chestnut",
        "latin_name": "Castanea sativa",
        "comments": "Dead",
        "easting": 381867.5625,
        "northing": 344971.625
      }
    },
    {
      "type": "Feature",
      "geometry": {
        "type": "Point",
        "coordinates": [
          -2.271585083563375,
          53.00176007182166
        ]
      },
      "properties": {
        "source_sheet": "lost_trees",
        "tag": 3537,
        "square": "M8",
        "species": "Norway Maple",
        "latin_name": "Acer platanoides",
        "comments": "Dead",
        "easting": 381871.28125,
        "northing": 344972.4375
      }
    },
    {
      "type": "Feature",
      "geometry": {
        "type": "Point",
        "coordinates": [
          -2.2715614959315578,
          53.00178568874723
        ]
      },
      "properties": {
        "source_sheet": "lost_trees",
        "tag": 3538,
        "square": "M8",
        "species": "Sweet Chestnut",
        "latin_name": "Castanea sativa",
        "comments": "Dead",
        "easting": 381872.875,
        "northing": 344975.28125
      }
    },
    {
      "type": "Feature",
      "geometry": {
        "type": "Point",
        "coordinates": [
          -2.27153050010395,
          53.00174390367863
        ]
      },
      "properties": {
        "source_sheet": "lost_trees",
        "tag": 3539,
        "square": "M8",
        "species": "Norway Maple",
        "latin_name": "Acer platanoides",
        "comments": "Dead",
        "easting": 381874.9375,
        "northing": 344970.625
      }
    },
    {
      "type": "Feature",
      "geometry": {
        "type": "Point",
        "coordinates": [
          -2.2716067556258897,
          53.001726031905335
        ]
      },
      "properties": {
        "source_sheet": "lost_trees",
        "tag": 3540,
        "square": "M8",
        "species": "Sweet Chestnut",
        "latin_name": "Castanea sativa",
        "comments": "Dead",
        "easting": 381869.8125,
        "northing": 344968.65625
      }
    },
    {
      "type": "Feature",
      "geometry": {
        "type": "Point",
        "coordinates": [
          -2.271578701912277,
          53.00170783674545
        ]
      },
      "properties": {
        "source_sheet": "lost_trees",
        "tag": 3541,
        "square": "M8",
        "species": "Norway Maple",
        "latin_name": "Acer platanoides",
        "comments": "Dead",
        "easting": 381871.6875,
        "northing": 344966.625
      }
    },
    {
      "type": "Feature",
      "geometry": {
        "type": "Point",
        "coordinates": [
          -2.2715748861075205,
          53.00221236371169
        ]
      },
      "properties": {
        "source_sheet": "lost_trees",
        "tag": 3545,
        "square": "M7",
        "species": "Sweet Chestnut",
        "latin_name": "Castanea sativa",
        "comments": "Dead : 2012 - felled January",
        "easting": 381872.15625,
        "northing": 345022.75
      }
    },
    {
      "type": "Feature",
      "geometry": {
        "type": "Point",
        "coordinates": [
          -2.2715956484692352,
          53.00225585763319
        ]
      },
      "properties": {
        "source_sheet": "lost_trees",
        "tag": 3546,
        "square": "M7",
        "species": "Norway Maple",
        "latin_name": "Acer platanoides",
        "comments": "Dead : 2012 - felled January",
        "easting": 381870.78125,
        "northing": 345027.59375
      }
    },
    {
      "type": "Feature",
      "geometry": {
        "type": "Point",
        "coordinates": [
          -2.2715305607039102,
          53.002272580225004
        ]
      },
      "properties": {
        "source_sheet": "lost_trees",
        "tag": 3547,
        "square": "M7",
        "species": "Norway Maple",
        "latin_name": "Acer platanoides",
        "comments": "Dead : 2012 - felled January",
        "easting": 381875.15625,
        "northing": 345029.4375
      }
    },
    {
      "type": "Feature",
      "geometry": {
        "type": "Point",
        "coordinates": [
          -2.271537337368352,
          53.00223941710335
        ]
      },
      "properties": {
        "source_sheet": "lost_trees",
        "tag": 3548,
        "square": "M7",
        "species": "Sweet Chestnut",
        "latin_name": "Castanea sativa",
        "comments": "Dead : 2012 - felled January",
        "easting": 381874.6875,
        "northing": 345025.75
      }
    },
    {
      "type": "Feature",
      "geometry": {
        "type": "Point",
        "coordinates": [
          -2.271441011847278,
          53.00225003097013
        ]
      },
      "properties": {
        "source_sheet": "lost_trees",
        "tag": 3549,
        "square": "M7",
        "species": "Norway Maple",
        "latin_name": "Acer platanoides",
        "comments": "Dead : 2012 - felled January",
        "easting": 381881.15625,
        "northing": 345026.90625
      }
    },
    {
      "type": "Feature",
      "geometry": {
        "type": "Point",
        "coordinates": [
          -2.2715401029699653,
          53.002160755380174
        ]
      },
      "properties": {
        "source_sheet": "lost_trees",
        "tag": 3550,
        "square": "M7",
        "species": "Red Horse-chestnut",
        "latin_name": "Aesculus X carnea",
        "comments": "Dead : 2012 - felled January",
        "easting": 381874.46875,
        "northing": 345017.0
      }
    },
    {
      "type": "Feature",
      "geometry": {
        "type": "Point",
        "coordinates": [
          -2.2714784407142465,
          53.002129715048625
        ]
      },
      "properties": {
        "source_sheet": "lost_trees",
        "tag": 3551,
        "square": "M7",
        "species": "Norway Maple",
        "latin_name": "Acer platanoides",
        "comments": "Dead : 2012 - felled January",
        "easting": 381878.59375,
        "northing": 345013.53125
      }
    },
    {
      "type": "Feature",
      "geometry": {
        "type": "Point",
        "coordinates": [
          -2.2714405180383026,
          53.00217137669646
        ]
      },
      "properties": {
        "source_sheet": "lost_trees",
        "tag": 3552,
        "square": "M7",
        "species": "Flowering Cherry",
        "latin_name": "Prunus sp",
        "comments": "Dead : 2012 - felled January",
        "easting": 381881.15625,
        "northing": 345018.15625
      }
    },
    {
      "type": "Feature",
      "geometry": {
        "type": "Point",
        "coordinates": [
          -2.271375844687304,
          53.00225411261202
        ]
      },
      "properties": {
        "source_sheet": "lost_trees",
        "tag": 3553,
        "square": "M7",
        "species": "Norway Maple",
        "latin_name": "Acer platanoides",
        "comments": "Dead : 2012 - felled January",
        "easting": 381885.53125,
        "northing": 345027.34375
      }
    },
    {
      "type": "Feature",
      "geometry": {
        "type": "Point",
        "coordinates": [
          -2.271327405877921,
          53.00225253777256
        ]
      },
      "properties": {
        "source_sheet": "lost_trees",
        "tag": 3554,
        "square": "M7",
        "species": "Norway Maple",
        "latin_name": "Acer platanoides",
        "comments": "Dead : 2012 - felled January",
        "easting": 381888.78125,
        "northing": 345027.15625
      }
    },
    {
      "type": "Feature",
      "geometry": {
        "type": "Point",
        "coordinates": [
          -2.2713828067700548,
          53.00217628404382
        ]
      },
      "properties": {
        "source_sheet": "lost_trees",
        "tag": 3555,
        "square": "M7",
        "species": "Norway Maple",
        "latin_name": "Acer platanoides",
        "comments": "Dead : 2012 - felled January",
        "easting": 381885.03125,
        "northing": 345018.6875
      }
    },
    {
      "type": "Feature",
      "geometry": {
        "type": "Point",
        "coordinates": [
          -2.2713573757714536,
          53.00213083436319
        ]
      },
      "properties": {
        "source_sheet": "lost_trees",
        "tag": 3556,
        "square": "M7",
        "species": "Flowering Cherry",
        "latin_name": "Prunus avium 'Plena'",
        "comments": "Dead : 2012 - felled January",
        "easting": 381886.71875,
        "northing": 345013.625
      }
    },
    {
      "type": "Feature",
      "geometry": {
        "type": "Point",
        "coordinates": [
          -2.2712851851839555,
          53.00212875192983
        ]
      },
      "properties": {
        "source_sheet": "lost_trees",
        "tag": 3557,
        "square": "M7",
        "species": "Flowering Cherry",
        "latin_name": "Prunus avium",
        "comments": "Dead : 2012 - felled January",
        "easting": 381891.5625,
        "northing": 345013.375
      }
    },
    {
      "type": "Feature",
      "geometry": {
        "type": "Point",
        "coordinates": [
          -2.2713049594968657,
          53.00216325896966
        ]
      },
      "properties": {
        "source_sheet": "lost_trees",
        "tag": 3558,
        "square": "M7",
        "species": "Norway Maple",
        "latin_name": "Acer platanoides",
        "comments": "Dead : 2012 - felled January",
        "easting": 381890.25,
        "northing": 345017.21875
      }
    },
    {
      "type": "Feature",
      "geometry": {
        "type": "Point",
        "coordinates": [
          -2.2713416296603492,
          53.002218795829975
        ]
      },
      "properties": {
        "source_sheet": "lost_trees",
        "tag": 3559,
        "square": "M7",
        "species": "Norway Maple",
        "latin_name": "Acer platanoides",
        "comments": "Dead : 2012 - felled January",
        "easting": 381887.8125,
        "northing": 345023.40625
      }
    },
    {
      "type": "Feature",
      "geometry": {
        "type": "Point",
        "coordinates": [
          -2.271236984425311,
          53.00216509965052
        ]
      },
      "properties": {
        "source_sheet": "lost_trees",
        "tag": 3560,
        "square": "M7",
        "species": "Flowering Cherry",
        "latin_name": "Prunus avium",
        "comments": "Dead : 2012 - felled January",
        "easting": 381894.8125,
        "northing": 345017.40625
      }
    },
    {
      "type": "Feature",
      "geometry": {
        "type": "Point",
        "coordinates": [
          -2.2712615192554093,
          53.00221616964565
        ]
      },
      "properties": {
        "source_sheet": "lost_trees",
        "tag": 3561,
        "square": "M7",
        "species": "Norway Maple",
        "latin_name": "Acer platanoides",
        "comments": "Dead : 2012 - felled January",
        "easting": 381893.1875,
        "northing": 345023.09375
      }
    },
    {
      "type": "Feature",
      "geometry": {
        "type": "Point",
        "coordinates": [
          -2.2712691336577544,
          53.00224227708974
        ]
      },
      "properties": {
        "source_sheet": "lost_trees",
        "tag": 3562,
        "square": "M7",
        "species": "Norway Maple",
        "latin_name": "Acer platanoides",
        "comments": "Dead : 2012 - felled January",
        "easting": 381892.6875,
        "northing": 345026.0
      }
    },
    {
      "type": "Feature",
      "geometry": {
        "type": "Point",
        "coordinates": [
          -2.2712050973874933,
          53.00220393832164
        ]
      },
      "properties": {
        "source_sheet": "lost_trees",
        "tag": 3563,
        "square": "M7",
        "species": "Flowering Cherry",
        "latin_name": "Prunus avium",
        "comments": "Dead : 2012 - felled January",
        "easting": 381896.96875,
        "northing": 345021.71875
      }
    },
    {
      "type": "Feature",
      "geometry": {
        "type": "Point",
        "coordinates": [
          -2.2710982548838077,
          53.00231963706021
        ]
      },
      "properties": {
        "source_sheet": "lost_trees",
        "tag": 3564,
        "square": "N7",
        "species": "Common Hawthorn",
        "latin_name": "Cratageaus monogyna",
        "comments": "Dead : 2012 - felled January",
        "easting": 381904.1875,
        "northing": 345034.5625
      }
    },
    {
      "type": "Feature",
      "geometry": {
        "type": "Point",
        "coordinates": [
          -2.271008373513897,
          53.0023925983664
        ]
      },
      "properties": {
        "source_sheet": "lost_trees",
        "tag": 3565,
        "square": "N7",
        "species": "Norway Maple",
        "latin_name": "Acer platanoides",
        "comments": "Dead : 2012 - felled January",
        "easting": 381910.25,
        "northing": 345042.65625
      }
    },
    {
      "type": "Feature",
      "geometry": {
        "type": "Point",
        "coordinates": [
          -2.2717375323318834,
          53.00223306022506
        ]
      },
      "properties": {
        "source_sheet": "lost_trees",
        "tag": 3597,
        "square": "M7",
        "species": "Rowan",
        "latin_name": "Sorbus acuparia",
        "comments": "Dead : 2012 - felled January",
        "easting": 381861.25,
        "northing": 345025.09375
      }
    },
    {
      "type": "Feature",
      "geometry": {
        "type": "Point",
        "coordinates": [
          -2.2717190292646103,
          53.00217860558694
        ]
      },
      "properties": {
        "source_sheet": "lost_trees",
        "tag": 3598,
        "square": "M7",
        "species": "Rowan",
        "latin_name": "Sorbus acuparia",
        "comments": "Dead : 2012 - felled January",
        "easting": 381862.46875,
        "northing": 345019.03125
      }
    },
    {
      "type": "Feature",
      "geometry": {
        "type": "Point",
        "coordinates": [
          -2.2717700447506846,
          53.00214562217776
        ]
      },
      "properties": {
        "source_sheet": "lost_trees",
        "tag": 3599,
        "square": "M7",
        "species": "Rowan",
        "latin_name": "Sorbus acuparia",
        "comments": "Dead : 2012 - felled January",
        "easting": 381859.03125,
        "northing": 345015.375
      }
    },
    {
      "type": "Feature",
      "geometry": {
        "type": "Point",
        "coordinates": [
          -2.2728864392977655,
          53.002177896288394
        ]
      },
      "properties": {
        "source_sheet": "lost_trees",
        "tag": 3608,
        "square": "L7",
        "species": "Large-leaved Lime",
        "latin_name": "Tilia platyphyllos",
        "comments": "Dead : Felled",
        "memorial_commemorative": "Donation : Keele Sunday School",
        "easting": 381784.125,
        "northing": 345019.25
      }
    },
    {
      "type": "Feature",
      "geometry": {
        "type": "Point",
        "coordinates": [
          -2.2722283732822057,
          53.00238615731698
        ]
      },
      "properties": {
        "source_sheet": "lost_trees",
        "tag": 3629,
        "square": "M7",
        "species": "White Poplar",
        "latin_name": "Populus alba 'Pyramidalis'",
        "comments": "Dead : Felled",
        "memorial_commemorative": "Donation : Ms Marion Bailey",
        "easting": 381828.375,
        "northing": 345042.25
      }
    },
    {
      "type": "Feature",
      "geometry": {
        "type": "Point",
        "coordinates": [
          -2.272226255471802,
          53.00241959071492
        ]
      },
      "properties": {
        "source_sheet": "lost_trees",
        "tag": 3630,
        "square": "M7",
        "species": "White Poplar",
        "latin_name": "Populus alba 'Pyramidalis'",
        "comments": "Dead : Felled",
        "memorial_commemorative": "Donation : Ms Marion Bailey",
        "easting": 381828.53125,
        "northing": 345045.96875
      }
    },
    {
      "type": "Feature",
      "geometry": {
        "type": "Point",
        "coordinates": [
          -2.2723069098139277,
          53.00243457513738
        ]
      },
      "properties": {
        "source_sheet": "lost_trees",
        "tag": 3631,
        "square": "M7",
        "species": "White Poplar",
        "latin_name": "Populus alba 'Pyramidalis'",
        "comments": "Dead : Felled",
        "memorial_commemorative": "Donation : Ms Marion Bailey",
        "easting": 381823.125,
        "northing": 345047.65625
      }
    },
    {
      "type": "Feature",
      "geometry": {
        "type": "Point",
        "coordinates": [
          -2.2752526687639554,
          53.00147802283561
        ]
      },
      "properties": {
        "source_sheet": "lost_trees",
        "tag": 3721,
        "square": "K8",
        "species": "Flowering Cherry",
        "latin_name": "Prunus sp",
        "comments": "Dead",
        "easting": 381625.03125,
        "northing": 344942.0
      }
    },
    {
      "type": "Feature",
      "geometry": {
        "type": "Point",
        "coordinates": [
          -2.275813476104134,
          53.00179499576028
        ]
      },
      "properties": {
        "source_sheet": "lost_trees",
        "tag": 3735,
        "square": "K8",
        "species": "Flowering Cherry",
        "latin_name": "Prunus sp",
        "comments": "Dead",
        "easting": 381587.53125,
        "northing": 344977.40625
      }
    },
    {
      "type": "Feature",
      "geometry": {
        "type": "Point",
        "coordinates": [
          -2.275811441728522,
          53.00184107008332
        ]
      },
      "properties": {
        "source_sheet": "lost_trees",
        "tag": 3736,
        "square": "K8",
        "species": "Flowering Cherry",
        "latin_name": "Prunus 'Kanzan'",
        "comments": "Dead",
        "easting": 381587.6875,
        "northing": 344982.53125
      }
    },
    {
      "type": "Feature",
      "geometry": {
        "type": "Point",
        "coordinates": [
          -2.2756361131462506,
          53.001949347260165
        ]
      },
      "properties": {
        "source_sheet": "lost_trees",
        "tag": 3738,
        "square": "K8",
        "species": "Flowering Cherry",
        "latin_name": "Prunus 'Kanzan'",
        "comments": "Dead",
        "easting": 381599.5,
        "northing": 344994.53125
      }
    },
    {
      "type": "Feature",
      "geometry": {
        "type": "Point",
        "coordinates": [
          -2.276512899290851,
          53.00230547290541
        ]
      },
      "properties": {
        "source_sheet": "lost_trees",
        "tag": 3799,
        "square": "J7",
        "species": "Whitebeam sp",
        "latin_name": "Sorbus sp",
        "comments": "Dead",
        "easting": 381540.8125,
        "northing": 345034.375
      }
    },
    {
      "type": "Feature",
      "geometry": {
        "type": "Point",
        "coordinates": [
          -2.2763239684493892,
          53.00232557632213
        ]
      },
      "properties": {
        "source_sheet": "lost_trees",
        "tag": 3800,
        "square": "J7",
        "species": "Whitebeam sp",
        "latin_name": "Sorbus sp",
        "comments": "Dead",
        "easting": 381553.5,
        "northing": 345036.5625
      }
    },
    {
      "type": "Feature",
      "geometry": {
        "type": "Point",
        "coordinates": [
          -2.276163915334742,
          53.00234673596587
        ]
      },
      "properties": {
        "source_sheet": "lost_trees",
        "tag": 3801,
        "square": "J7",
        "species": "Whitebeam sp",
        "latin_name": "Sorbus sp",
        "comments": "Dead",
        "easting": 381564.25,
        "northing": 345038.875
      }
    },
    {
      "type": "Feature",
      "geometry": {
        "type": "Point",
        "coordinates": [
          -2.2751451940725103,
          52.99995572742032
        ]
      },
      "properties": {
        "source_sheet": "lost_trees",
        "tag": 6454,
        "square": "K10",
        "species": "Flowering Cherry",
        "latin_name": "Prunus sp",
        "comments": "Dead : 2012 -  hit by vehicle 2nd May",
        "easting": 381631.59375,
        "northing": 344772.625
      }
    },
    {
      "type": "Feature",
      "geometry": {
        "type": "Point",
        "coordinates": [
          -2.2742036031635386,
          53.00060540711485
        ]
      },
      "properties": {
        "source_sheet": "lost_trees",
        "tag": 6589,
        "square": "K9",
        "species": "Flowering Cherry",
        "latin_name": "Prunus sp",
        "comments": "Dead",
        "easting": 381695.0625,
        "northing": 344844.65625
      }
    },
    {
      "type": "Feature",
      "geometry": {
        "type": "Point",
        "coordinates": [
          -2.2742646088985334,
          53.000606389946704
        ]
      },
      "properties": {
        "source_sheet": "lost_trees",
        "tag": 6591,
        "square": "K9",
        "species": "Flowering Cherry",
        "latin_name": "Prunus sp",
        "comments": "Dead",
        "easting": 381690.96875,
        "northing": 344844.78125
      }
    },
    {
      "type": "Feature",
      "geometry": {
        "type": "Point",
        "coordinates": [
          -2.268304278820099,
          52.998718505076006
        ]
      },
      "properties": {
        "source_sheet": "lost_trees",
        "tag": 7563,
        "square": "O11",
        "species": "Noble Fir",
        "latin_name": "Abies procera",
        "comments": "Dead : 2018 - Felled",
        "easting": 382090.1875,
        "northing": 344633.25
      }
    },
    {
      "type": "Feature",
      "geometry": {
        "type": "Point",
        "coordinates": [
          -2.269486615445121,
          52.999708292047
        ]
      },
      "properties": {
        "source_sheet": "lost_trees",
        "tag": 7576,
        "square": "O10",
        "species": "Flowering Cherry",
        "latin_name": "Prunus 'Tai Haku'",
        "comments": "Dead : 2015 - Felled July, tree split",
        "easting": 382011.25,
        "northing": 344743.65625
      }
    },
    {
      "type": "Feature",
      "geometry": {
        "type": "Point",
        "coordinates": [
          -2.269587337119901,
          52.99988082456679
        ]
      },
      "properties": {
        "source_sheet": "lost_trees",
        "tag": 7582,
        "square": "O10",
        "species": "Flowering Cherry",
        "latin_name": "Prunus spp",
        "comments": "Dead",
        "easting": 382004.5625,
        "northing": 344762.875
      }
    },
    {
      "type": "Feature",
      "geometry": {
        "type": "Point",
        "coordinates": [
          -2.2695811110109556,
          53.00000247369722
        ]
      },
      "properties": {
        "source_sheet": "lost_trees",
        "tag": 7587,
        "square": "O10",
        "species": "Beech",
        "latin_name": "Fagus sylvatica",
        "comments": "Dead : 2014 - Felled February",
        "easting": 382005.03125,
        "northing": 344776.40625
      }
    },
    {
      "type": "Feature",
      "geometry": {
        "type": "Point",
        "coordinates": [
          -2.2695492804786612,
          53.00019974631201
        ]
      },
      "properties": {
        "source_sheet": "lost_trees",
        "tag": 7599,
        "square": "O10",
        "species": "Flowering Cherry",
        "latin_name": "Prunus avium",
        "comments": "Dead",
        "easting": 382007.25,
        "northing": 344798.34375
      }
    },
    {
      "type": "Feature",
      "geometry": {
        "type": "Point",
        "coordinates": [
          -2.2695769140139914,
          53.00022552753718
        ]
      },
      "properties": {
        "source_sheet": "lost_trees",
        "tag": 7600,
        "square": "O10",
        "species": "Flowering Cherry",
        "latin_name": "Prunus avium",
        "comments": "Dead",
        "easting": 382005.40625,
        "northing": 344801.21875
      }
    },
    {
      "type": "Feature",
      "geometry": {
        "type": "Point",
        "coordinates": [
          -2.273598412473023,
          52.99900981605964
        ]
      },
      "properties": {
        "source_sheet": "lost_trees",
        "tag": 4276,
        "square": "K11",
        "species": "Flowering Cherry",
        "latin_name": "Prunus 'Francoise'",
        "planted": 2013,
        "comments": "vandalised 2018",
        "memorial_commemorative": "Memorial - Rhys Coull",
        "easting": 381735.0,
        "northing": 344667.0
      }
    },
    {
      "type": "Feature",
      "geometry": {
        "type": "Point",
        "coordinates": [
          -2.27414987879272,
          52.99903551236302
        ]
      },
      "properties": {
        "source_sheet": "lost_trees",
        "tag": 4193,
        "square": "K11",
        "species": "Flowering Cherry",
        "latin_name": "Prunus 'Ryuun-in-beniyae'",
        "planted": 2012,
        "comments": "Sato-zakura Group",
        "easting": 381698.0,
        "northing": 344670.0
      }
    },
    {
      "type": "Feature",
      "geometry": {
        "type": "Point",
        "coordinates": [
          -2.2790223277775836,
          53.00367158102633
        ]
      },
      "properties": {
        "source_sheet": "lost_trees",
        "tag": 4337,
        "square": "H6",
        "species": "Flowering Cherry",
        "latin_name": "Prunus itosakura",
        "planted": 2019,
        "easting": 381373.0,
        "northing": 345187.0
      }
    },
    {
      "type": "Feature",
      "geometry": {
        "type": "Point",
        "coordinates": [
          -2.277903677165444,
          53.003512397478254
        ]
      },
      "properties": {
        "source_sheet": "lost_trees",
        "tag": 4338,
        "square": "H6",
        "species": "Flowering Cherry",
        "latin_name": "Prunus jamasakura 'Shizuka-nioi'",
        "planted": 2019,
        "comments": "Sato-zakura Group",
        "easting": 381448.0,
        "northing": 345169.0
      }
    },
    {
      "type": "Feature",
      "geometry": {
        "type": "Point",
        "coordinates": [
          -2.2746529373885616,
          53.00105781773179
        ]
      },
      "properties": {
        "source_sheet": "lost_trees",
        "tag": 4036,
        "square": "K9",
        "species": "Flowering Cherry",
        "latin_name": "Prunus 'Hiyodori-zakura'",
        "planted": 2008,
        "comments": "Sato-zakura Group",
        "easting": 381665.1,
        "northing": 344895.1
      }
    }
  ]
}